[{"OBJECT_NAME":"DMC3-FM3","OBJECT_ID":"2015-032C","EPOCH":"2026-03-07T14:50:33.646272","MEAN_MOTION":14.85613153,"ECCENTRICITY":0.00064573,"INCLINATION":97.6723,"RA_OF_ASC_NODE":298.8834,"ARG_OF_PERICENTER":44.091,"MEAN_ANOMALY":316.082,"EPHEMERIS_TYPE":0,"CLASSIFICATION_TYPE":"U","NORAD_CAT_ID":40717,"ELEMENT_SET_NO":999,"REV_AT_EPOCH":57483,"BSTAR":0.00011197323,"MEAN_MOTION_DOT":9.18e-6,"MEAN_MOTION_DDOT":0},{"OBJECT_NAME":"CARBONITE 1 (CBNT-1)","OBJECT_ID":"2015-032D","EPOCH":"2026-03-07T14:20:36.007008","MEAN_MOTION":14.8320791,"ECCENTRICITY":0.00131731,"INCLINATION":97.6462,"RA_OF_ASC_NODE":248.9555,"ARG_OF_PERICENTER":268.0741,"MEAN_ANOMALY":91.8965,"EPHEMERIS_TYPE":0,"CLASSIFICATION_TYPE":"U","NORAD_CAT_ID":40718,"ELEMENT_SET_NO":999,"REV_AT_EPOCH":57428,"BSTAR":0.00039285935,"MEAN_MOTION_DOT":3.163e-5,"MEAN_MOTION_DDOT":0},{"OBJECT_NAME":"DEORBITSAIL","OBJECT_ID":"2015-032E","EPOCH":"2026-03-07T13:42:19.423296","MEAN_MOTION":15.02237653,"ECCENTRICITY":0.00118987,"INCLINATION":97.5983,"RA_OF_ASC_NODE":285.3641,"ARG_OF_PERICENTER":217.2833,"MEAN_ANOMALY":142.7567,"EPHEMERIS_TYPE":0,"CLASSIFICATION_TYPE":"U","NORAD_CAT_ID":40719,"ELEMENT_SET_NO":999,"REV_AT_EPOCH":57598,"BSTAR":0.00099160405,"MEAN_MOTION_DOT":0.00013051,"MEAN_MOTION_DDOT":0},{"OBJECT_NAME":"2015-049G","OBJECT_ID":"2015-049G","EPOCH":"2026-03-07T14:48:04.226112","MEAN_MOTION":15.58978736,"ECCENTRICITY":0.0004894,"INCLINATION":97.4717,"RA_OF_ASC_NODE":105.0876,"ARG_OF_PERICENTER":213.2654,"MEAN_ANOMALY":146.8295,"EPHEMERIS_TYPE":0,"CLASSIFICATION_TYPE":"U","NORAD_CAT_ID":40905,"ELEMENT_SET_NO":999,"REV_AT_EPOCH":58058,"BSTAR":0.00054941478,"MEAN_MOTION_DOT":0.00042762,"MEAN_MOTION_DDOT":0},{"OBJECT_NAME":"LILACSAT-2","OBJECT_ID":"2015-049K","EPOCH":"2026-03-07T15:21:55.173888","MEAN_MOTION":15.47931498,"ECCENTRICITY":0.00056033,"INCLINATION":97.481,"RA_OF_ASC_NODE":99.7933,"ARG_OF_PERICENTER":255.1565,"MEAN_ANOMALY":104.9065,"EPHEMERIS_TYPE":0,"CLASSIFICATION_TYPE":"U","NORAD_CAT_ID":40908,"ELEMENT_SET_NO":999,"REV_AT_EPOCH":58002,"BSTAR":0.000455761,"MEAN_MOTION_DOT":0.00023718,"MEAN_MOTION_DDOT":0},{"OBJECT_NAME":"COSMOS 2507 (RODNIK-S 13)","OBJECT_ID":"2015-050A","EPOCH":"2026-03-07T15:33:11.018016","MEAN_MOTION":12.4292302,"ECCENTRICITY":0.00096584,"INCLINATION":82.4945,"RA_OF_ASC_NODE":142.893,"ARG_OF_PERICENTER":203.1273,"MEAN_ANOMALY":156.9373,"EPHEMERIS_TYPE":0,"CLASSIFICATION_TYPE":"U","NORAD_CAT_ID":40920,"ELEMENT_SET_NO":999,"REV_AT_EPOCH":47424,"BSTAR":-0.00025124649,"MEAN_MOTION_DOT":-2.5e-7,"MEAN_MOTION_DDOT":0},{"OBJECT_NAME":"COSMOS 2508 (RODNIK-S 14)","OBJECT_ID":"2015-050B","EPOCH":"2026-03-07T14:26:52.064736","MEAN_MOTION":12.42910152,"ECCENTRICITY":0.00132111,"INCLINATION":82.4895,"RA_OF_ASC_NODE":141.466,"ARG_OF_PERICENTER":240.9418,"MEAN_ANOMALY":119.0339,"EPHEMERIS_TYPE":0,"CLASSIFICATION_TYPE":"U","NORAD_CAT_ID":40921,"ELEMENT_SET_NO":999,"REV_AT_EPOCH":47422,"BSTAR":0.00022265651,"MEAN_MOTION_DOT":4.1e-7,"MEAN_MOTION_DDOT":0},{"OBJECT_NAME":"COSMOS 2509 (RODNIK-S 15)","OBJECT_ID":"2015-050C","EPOCH":"2026-03-07T14:52:47.457408","MEAN_MOTION":12.42930389,"ECCENTRICITY":0.00133296,"INCLINATION":82.4901,"RA_OF_ASC_NODE":141.547,"ARG_OF_PERICENTER":260.9124,"MEAN_ANOMALY":99.0447,"EPHEMERIS_TYPE":0,"CLASSIFICATION_TYPE":"U","NORAD_CAT_ID":40922,"ELEMENT_SET_NO":999,"REV_AT_EPOCH":47426,"BSTAR":0.00018842821,"MEAN_MOTION_DOT":3.6e-7,"MEAN_MOTION_DDOT":0},{"OBJECT_NAME":"LQSAT","OBJECT_ID":"2015-057A","EPOCH":"2026-03-07T15:13:12.376992","MEAN_MOTION":14.76633709,"ECCENTRICITY":0.00156039,"INCLINATION":97.6661,"RA_OF_ASC_NODE":65.0648,"ARG_OF_PERICENTER":240.1474,"MEAN_ANOMALY":119.8186,"EPHEMERIS_TYPE":0,"CLASSIFICATION_TYPE":"U","NORAD_CAT_ID":40958,"ELEMENT_SET_NO":999,"REV_AT_EPOCH":56032,"BSTAR":0.00019837004,"MEAN_MOTION_DOT":1.34e-5,"MEAN_MOTION_DDOT":0},{"OBJECT_NAME":"LINGQIAO VIDEO A","OBJECT_ID":"2015-057B","EPOCH":"2026-03-07T15:05:22.836192","MEAN_MOTION":14.77235772,"ECCENTRICITY":0.00153696,"INCLINATION":97.6608,"RA_OF_ASC_NODE":66.4655,"ARG_OF_PERICENTER":237.4043,"MEAN_ANOMALY":122.5684,"EPHEMERIS_TYPE":0,"CLASSIFICATION_TYPE":"U","NORAD_CAT_ID":40959,"ELEMENT_SET_NO":999,"REV_AT_EPOCH":56041,"BSTAR":0.00017847047,"MEAN_MOTION_DOT":1.218e-5,"MEAN_MOTION_DDOT":0},{"OBJECT_NAME":"LINGQIAO VIDEO B","OBJECT_ID":"2015-057C","EPOCH":"2026-03-07T14:41:48.108768","MEAN_MOTION":14.77326325,"ECCENTRICITY":0.00155358,"INCLINATION":97.6579,"RA_OF_ASC_NODE":67.6382,"ARG_OF_PERICENTER":237.6314,"MEAN_ANOMALY":122.3394,"EPHEMERIS_TYPE":0,"CLASSIFICATION_TYPE":"U","NORAD_CAT_ID":40960,"ELEMENT_SET_NO":999,"REV_AT_EPOCH":56045,"BSTAR":0.00010701352,"MEAN_MOTION_DOT":7.13e-6,"MEAN_MOTION_DDOT":0},{"OBJECT_NAME":"JILIN-1","OBJECT_ID":"2015-057D","EPOCH":"2026-03-07T14:28:33.943296","MEAN_MOTION":14.77988993,"ECCENTRICITY":0.0015769,"INCLINATION":97.6518,"RA_OF_ASC_NODE":71.0273,"ARG_OF_PERICENTER":231.0711,"MEAN_ANOMALY":128.9096,"EPHEMERIS_TYPE":0,"CLASSIFICATION_TYPE":"U","NORAD_CAT_ID":40961,"ELEMENT_SET_NO":999,"REV_AT_EPOCH":56060,"BSTAR":0.00016125998,"MEAN_MOTION_DOT":1.117e-5,"MEAN_MOTION_DDOT":0},{"OBJECT_NAME":"FOX-1A (AO-85)","OBJECT_ID":"2015-058D","EPOCH":"2026-03-07T15:30:52.095456","MEAN_MOTION":14.90334877,"ECCENTRICITY":0.01290177,"INCLINATION":64.7744,"RA_OF_ASC_NODE":234.3848,"ARG_OF_PERICENTER":96.7392,"MEAN_ANOMALY":264.8421,"EPHEMERIS_TYPE":0,"CLASSIFICATION_TYPE":"U","NORAD_CAT_ID":40967,"ELEMENT_SET_NO":999,"REV_AT_EPOCH":9843,"BSTAR":0.00052136363,"MEAN_MOTION_DOT":5.788e-5,"MEAN_MOTION_DDOT":0},{"OBJECT_NAME":"SINOD-D 1","OBJECT_ID":"2015-058E","EPOCH":"2026-03-07T15:11:36.028032","MEAN_MOTION":14.95024414,"ECCENTRICITY":0.01173501,"INCLINATION":64.7757,"RA_OF_ASC_NODE":216.7257,"ARG_OF_PERICENTER":94.0545,"MEAN_ANOMALY":267.3992,"EPHEMERIS_TYPE":0,"CLASSIFICATION_TYPE":"U","NORAD_CAT_ID":40968,"ELEMENT_SET_NO":999,"REV_AT_EPOCH":10147,"BSTAR":0.00062177229,"MEAN_MOTION_DOT":7.663e-5,"MEAN_MOTION_DDOT":0},{"OBJECT_NAME":"ELEKTRO-L 2","OBJECT_ID":"2015-074A","EPOCH":"2026-03-07T07:00:15.232608","MEAN_MOTION":1.00271084,"ECCENTRICITY":0.000324,"INCLINATION":6.4383,"RA_OF_ASC_NODE":71.7777,"ARG_OF_PERICENTER":243.1619,"MEAN_ANOMALY":300.6093,"EPHEMERIS_TYPE":0,"CLASSIFICATION_TYPE":"U","NORAD_CAT_ID":41105,"ELEMENT_SET_NO":999,"REV_AT_EPOCH":3748,"BSTAR":0,"MEAN_MOTION_DOT":-1.18e-6,"MEAN_MOTION_DDOT":0},{"OBJECT_NAME":"DAMPE","OBJECT_ID":"2015-078A","EPOCH":"2026-03-07T13:51:32.595840","MEAN_MOTION":15.30488276,"ECCENTRICITY":0.00138894,"INCLINATION":97.4582,"RA_OF_ASC_NODE":71.5559,"ARG_OF_PERICENTER":78.1385,"MEAN_ANOMALY":282.1412,"EPHEMERIS_TYPE":0,"CLASSIFICATION_TYPE":"U","NORAD_CAT_ID":41173,"ELEMENT_SET_NO":999,"REV_AT_EPOCH":56900,"BSTAR":4.137268e-5,"MEAN_MOTION_DOT":1.145e-5,"MEAN_MOTION_DDOT":0},{"OBJECT_NAME":"ORBCOMM FM114","OBJECT_ID":"2015-081A","EPOCH":"2026-03-07T13:05:02.761440","MEAN_MOTION":14.5872641,"ECCENTRICITY":0.00012471,"INCLINATION":47.0041,"RA_OF_ASC_NODE":122.51,"ARG_OF_PERICENTER":102.4742,"MEAN_ANOMALY":257.6284,"EPHEMERIS_TYPE":0,"CLASSIFICATION_TYPE":"U","NORAD_CAT_ID":41179,"ELEMENT_SET_NO":999,"REV_AT_EPOCH":54291,"BSTAR":0.00021871459,"MEAN_MOTION_DOT":8.6e-6,"MEAN_MOTION_DDOT":0},{"OBJECT_NAME":"ORBCOMM FM110","OBJECT_ID":"2015-081D","EPOCH":"2026-03-07T12:49:31.015200","MEAN_MOTION":14.5873167,"ECCENTRICITY":0.00034974,"INCLINATION":47.0013,"RA_OF_ASC_NODE":122.0336,"ARG_OF_PERICENTER":310.1392,"MEAN_ANOMALY":49.9187,"EPHEMERIS_TYPE":0,"CLASSIFICATION_TYPE":"U","NORAD_CAT_ID":41182,"ELEMENT_SET_NO":999,"REV_AT_EPOCH":54278,"BSTAR":0.00030856366,"MEAN_MOTION_DOT":1.284e-5,"MEAN_MOTION_DDOT":0},{"OBJECT_NAME":"ORBCOMM FM112","OBJECT_ID":"2015-081F","EPOCH":"2026-03-07T02:13:10.932096","MEAN_MOTION":14.58724181,"ECCENTRICITY":9.419e-5,"INCLINATION":47.0001,"RA_OF_ASC_NODE":32.9374,"ARG_OF_PERICENTER":78.0699,"MEAN_ANOMALY":282.0292,"EPHEMERIS_TYPE":0,"CLASSIFICATION_TYPE":"U","NORAD_CAT_ID":41184,"ELEMENT_SET_NO":999,"REV_AT_EPOCH":54404,"BSTAR":0.00022687151,"MEAN_MOTION_DOT":8.98e-6,"MEAN_MOTION_DDOT":0},{"OBJECT_NAME":"ORBCOMM FM113","OBJECT_ID":"2015-081G","EPOCH":"2026-03-07T06:36:15.482880","MEAN_MOTION":14.5872669,"ECCENTRICITY":5.84e-5,"INCLINATION":47.0018,"RA_OF_ASC_NODE":32.4415,"ARG_OF_PERICENTER":95.4639,"MEAN_ANOMALY":264.6313,"EPHEMERIS_TYPE":0,"CLASSIFICATION_TYPE":"U","NORAD_CAT_ID":41185,"ELEMENT_SET_NO":999,"REV_AT_EPOCH":54405,"BSTAR":0.00026378,"MEAN_MOTION_DOT":1.073e-5,"MEAN_MOTION_DDOT":0},{"OBJECT_NAME":"ORBCOMM FM108","OBJECT_ID":"2015-081J","EPOCH":"2026-03-07T08:59:41.779968","MEAN_MOTION":14.58740193,"ECCENTRICITY":0.00021334,"INCLINATION":47.0054,"RA_OF_ASC_NODE":303.512,"ARG_OF_PERICENTER":82.2087,"MEAN_ANOMALY":277.9041,"EPHEMERIS_TYPE":0,"CLASSIFICATION_TYPE":"U","NORAD_CAT_ID":41187,"ELEMENT_SET_NO":999,"REV_AT_EPOCH":54521,"BSTAR":0.0002994308,"MEAN_MOTION_DOT":1.241e-5,"MEAN_MOTION_DDOT":0},{"OBJECT_NAME":"ORBCOMM FM117","OBJECT_ID":"2015-081K","EPOCH":"2026-03-07T08:10:04.551744","MEAN_MOTION":14.58731615,"ECCENTRICITY":0.00024941,"INCLINATION":47.0017,"RA_OF_ASC_NODE":302.3425,"ARG_OF_PERICENTER":92.1922,"MEAN_ANOMALY":267.925,"EPHEMERIS_TYPE":0,"CLASSIFICATION_TYPE":"U","NORAD_CAT_ID":41188,"ELEMENT_SET_NO":999,"REV_AT_EPOCH":54525,"BSTAR":0.00029003218,"MEAN_MOTION_DOT":1.196e-5,"MEAN_MOTION_DDOT":0},{"OBJECT_NAME":"ORBCOMM FM116","OBJECT_ID":"2015-081L","EPOCH":"2026-03-07T14:16:57.127296","MEAN_MOTION":14.5872295,"ECCENTRICITY":0.00025538,"INCLINATION":47.0034,"RA_OF_ASC_NODE":30.9195,"ARG_OF_PERICENTER":305.9356,"MEAN_ANOMALY":54.1292,"EPHEMERIS_TYPE":0,"CLASSIFICATION_TYPE":"U","NORAD_CAT_ID":41189,"ELEMENT_SET_NO":999,"REV_AT_EPOCH":54410,"BSTAR":0.0003027295,"MEAN_MOTION_DOT":1.256e-5,"MEAN_MOTION_DDOT":0}]
